NORAD_CAT_ID,OBJECT_NAME,OBJECT_TYPE,EPOCH,MEAN_MOTION,ECCENTRICITY,INCLINATION,RA_OF_ASC_NODE,ARG_OF_PERICENTER,MEAN_ANOMALY,BSTAR,MEAN_MOTION_DOT,MEAN_MOTION_DDOT,TLE_LINE0,TLE_LINE1,TLE_LINE2,SEMIMAJOR_AXIS,PERIOD,APOGEE,PERIGEE,DECAYED
44767,STARLINK-1062,PAYLOAD,2022-08-25 08:41:24,15.06398194,0.000147,53.0541,268.1013,69.1694,290.9453,0.00011899,1.491e-05,0.0,0 STARLINK-1062,1 44767U 19074BG  22237.36208990  .00001491  00000-0  11899-3 0  9998,2 44767  53.0541 268.1013 0001470  69.1694 290.9453 15.06398194153418,6925.354,95.592,548.237,546.201,0.0
44767,STARLINK-1062,PAYLOAD,2022-08-26 02:12:20,15.06403695,0.0001484,53.054,264.8252,67.5667,292.5479,0.00010073,1.219e-05,0.0,0 STARLINK-1062,1 44767U 19074BG  22238.09190100  .00001219  00000-0  10073-3 0  9993,2 44767  53.0540 264.8252 0001484  67.5667 292.5479 15.06403695153691,6925.337,95.592,548.23,546.175,0.0
44767,STARLINK-1062,PAYLOAD,2022-08-26 08:34:29,15.06405179,0.0001496999999999,53.0542,263.634,67.6968,292.4179,0.000106,1.298e-05,0.0,0 STARLINK-1062,1 44767U 19074BG  22238.35728652  .00001298  00000-0  10600-3 0  9994,2 44767  53.0542 263.6340 0001497  67.6968 292.4179 15.06405179153568,6925.333000000001,95.592,548.234,546.161,0.0
44767,STARLINK-1062,PAYLOAD,2022-08-26 18:07:43,15.06406985,0.0001506,53.0542,261.8469,67.4778,292.637,0.00011116,1.375e-05,0.0,0 STARLINK-1062,1 44767U 19074BG  22238.75536456  .00001375  00000-0  11116-3 0  9996,2 44767  53.0542 261.8469 0001506  67.4778 292.6370 15.06406985153626,6925.3269999999975,95.592,548.235,546.149,0.0
44767,STARLINK-1062,PAYLOAD,2022-08-27 11:38:40,15.0639687,0.0001567,53.0546,258.5709,69.5404,290.5753,-1.2197e-05,-4.63e-06,0.0,0 STARLINK-1062,1 44767U 19074BG  22239.48518816 -.00000463  00000-0 -12197-4 0  9997,2 44767  53.0546 258.5709 0001567  69.5404 290.5753 15.06396870153731,6925.358,95.592,548.308,546.138,0.0
44767,STARLINK-1062,PAYLOAD,2022-08-27 18:00:49,15.06396639,0.0001567,53.0545,257.3795,70.0261,290.0897,-1.8724e-05,-5.6e-06,0.0,0 STARLINK-1062,1 44767U 19074BG  22239.75057602 -.00000560  00000-0 -18724-4 0  9998,2 44767  53.0545 257.3795 0001567  70.0261 290.0897 15.06396639153771,6925.359,95.592,548.309,546.139,0.0
44767,STARLINK-1062,PAYLOAD,2022-08-28 11:31:45,15.06399532,0.000161,53.0541,254.1028,67.8102,292.3058,-6.2997e-06,-3.75e-06,0.0,0 STARLINK-1062,1 44767U 19074BG  22240.48038902 -.00000375  00000-0 -62997-5 0  9998,2 44767  53.0541 254.1028 0001610  67.8102 292.3058 15.06399532153889,6925.35,95.592,548.33,546.1,0.0
44767,STARLINK-1062,PAYLOAD,2022-08-29 05:02:41,15.06398779,0.0001631,53.0538,250.8263,67.2261,292.89,5.6923e-05,5.66e-06,0.0,0 STARLINK-1062,1 44767U 19074BG  22241.21020236  .00000566  00000-0  56923-4 0  9992,2 44767  53.0538 250.8263 0001631  67.2261 292.8900 15.06398779154167,6925.352,95.592,548.347,546.0880000000002,0.0
44767,STARLINK-1062,PAYLOAD,2022-08-29 08:13:46,15.06396301,0.0001681,53.054,250.2307,68.2021,291.9146,0.00011465,1.426e-05,0.0,0 STARLINK-1062,1 44767U 19074BG  22241.34289624  .00001426  00000-0  11465-3 0  9991,2 44767  53.0540 250.2307 0001681  68.2021 291.9146 15.06396301154018,6925.36,95.592,548.389,546.061,0.0
44767,STARLINK-1062,PAYLOAD,2022-08-29 17:47:00,15.06399618,0.0001696999999999,53.054,248.4436,68.4175,291.6994,0.00012869,1.636e-05,0.0,0 STARLINK-1062,1 44767U 19074BG  22241.74097541  .00001636  00000-0  12869-3 0  9992,2 44767  53.0540 248.4436 0001697  68.4175 291.6994 15.06399618154077,6925.35,95.592,548.39,546.039,0.0
44767,STARLINK-1062,PAYLOAD,2022-08-30 08:06:51,15.06404582,0.0001715,53.0539,245.7628,68.5547,291.5624,0.00012424,1.57e-05,0.0,0 STARLINK-1062,1 44767U 19074BG  22242.33809284  .00001570  00000-0  12424-3 0  9997,2 44767  53.0539 245.7628 0001715  68.5547 291.5624 15.06404582154338,6925.335,95.592,548.387,546.012,0.0
44767,STARLINK-1062,PAYLOAD,2022-08-31 06:24:25,15.06393107,0.0001786,53.0541,241.5934,70.6624,289.4558,-1.6238e-05,-5.23e-06,0.0,0 STARLINK-1062,1 44767U 19074BG  22243.26696008 -.00000523  00000-0 -16238-4 0  9995,2 44767  53.0541 241.5934 0001786  70.6624 289.4558 15.06393107154302,6925.37,95.593,548.472,545.998,0.0
44767,STARLINK-1062,PAYLOAD,2022-09-01 03:06:25,15.06401776,0.0001847,53.0535,237.7203,75.55,284.5694,1.7624e-05,-1.9e-07,0.0,0 STARLINK-1062,1 44767U 19074BG  22244.12946264 -.00000019  00000-0  17624-4 0  9992,2 44767  53.0535 237.7203 0001847  75.5500 284.5694 15.06401776154608,6925.343000000003,95.592,548.487,545.929,0.0
44767,STARLINK-1062,PAYLOAD,2022-09-01 09:28:35,15.06401508,0.0001766,53.0543,236.5299,70.1519,289.966,1.9029e-05,2e-08,0.0,0 STARLINK-1062,1 44767U 19074BG  22244.39484994  .00000002  00000-0  19029-4 0  9990,2 44767  53.0543 236.5299 0001766  70.1519 289.9660 15.06401508154470,6925.344,95.592,548.432,545.986,0.0
44767,STARLINK-1062,PAYLOAD,2022-09-02 02:59:31,15.06388151,0.0001624,53.0534,233.2523,70.8729,289.2436,3.8909e-06,-2.24e-06,0.0,0 STARLINK-1062,1 44767U 19074BG  22245.12467314 -.00000224  00000-0  38909-5 0  9995,2 44767  53.0534 233.2523 0001624  70.8729 289.2436 15.06388151154750,6925.385,95.593,548.375,546.125,0.0
44767,STARLINK-1062,PAYLOAD,2022-09-02 07:46:09,15.06386928,0.0001908,53.0542,232.3607,74.3049,285.8151,1.9874e-05,1.4e-07,0.0,0 STARLINK-1062,1 44767U 19074BG  22245.32371678  .00000014  00000-0  19874-4 0  9999,2 44767  53.0542 232.3607 0001908  74.3049 285.8151 15.06386928154612,6925.389,95.593,548.575,545.932,0.0
44767,STARLINK-1062,PAYLOAD,2022-09-02 15:43:50,15.06391431,0.0001695,53.0541,230.8709,67.4041,292.7128,3.0653e-05,1.75e-06,0.0,0 STARLINK-1062,1 44767U 19074BG  22245.65544876  .00000175  00000-0  30653-4 0  9993,2 44767  53.0541 230.8709 0001695  67.4041 292.7128 15.06391431154666,6925.375,95.593,548.414,546.066,0.0
44767,STARLINK-1062,PAYLOAD,2022-09-03 04:28:09,15.06396684,0.0001696999999999,53.0541,228.4879,67.3755,292.7414,3.4088e-05,2.26e-06,0.0,0 STARLINK-1062,1 44767U 19074BG  22246.18622194  .00000226  00000-0  34088-4 0  9995,2 44767  53.0541 228.4879 0001697  67.3755 292.7414 15.06396684154911,6925.359,95.592,548.399,546.048,0.0
44767,STARLINK-1062,PAYLOAD,2022-09-03 09:14:46,15.06398488,0.0001716,53.0543,227.5946,67.63600000000001,292.4811,4.8894e-05,4.47e-06,0.0,0 STARLINK-1062,1 44767U 19074BG  22246.38526132  .00000447  00000-0  48894-4 0  9997,2 44767  53.0543 227.5946 0001716  67.6360 292.4811 15.06398488154771,6925.353,95.592,548.4069999999998,546.03,0.0
44767,STARLINK-1062,PAYLOAD,2022-09-04 04:21:14,15.06401768,0.0001701,53.0544,224.0205,68.1294,291.9876,0.00019956,2.692e-05,0.0,0 STARLINK-1062,1 44767U 19074BG  22247.18141624  .00002692  00000-0  19956-3 0  9995,2 44767  53.0544 224.0205 0001701  68.1294 291.9876 15.06401768155062,6925.343000000003,95.592,548.386,546.03,0.0
44767,STARLINK-1062,PAYLOAD,2022-09-04 07:32:18,15.06404243,0.0001714,53.0544,223.4248,68.7755,291.3417,0.00022576,3.083e-05,0.0,0 STARLINK-1062,1 44767U 19074BG  22247.31410864  .00003083  00000-0  22576-3 0  9992,2 44767  53.0544 223.4248 0001714  68.7755 291.3417 15.06404243154913,6925.3359999999975,95.592,548.388,546.014,0.0
44767,STARLINK-1062,PAYLOAD,2022-09-05 07:25:24,15.064082999999998,0.000166,53.0529,218.9569,65.3335,294.7827,0.0001475,1.917e-05,0.0,0 STARLINK-1062,1 44767U 19074BG  22248.30930938  .00001917  00000-0  14750-3 0  9990,2 44767  53.0529 218.9569 0001660  65.3335 294.7827 15.06408300155234,6925.323,95.592,548.3380000000002,546.039,0.0
44767,STARLINK-1062,PAYLOAD,2022-09-06 04:07:25,15.06399842,0.0001646,53.0537,215.083,70.2237,289.8929,-5.5222e-05,-1.104e-05,0.0,0 STARLINK-1062,1 44767U 19074BG  22249.17181980 -.00001104  00000-0 -55222-4 0  9991,2 44767  53.0537 215.0830 0001646  70.2237 289.8929 15.06399842155364,6925.349,95.592,548.354,546.0740000000002,0.0
44767,STARLINK-1062,PAYLOAD,2022-09-06 07:18:30,15.06397978,0.0001541,53.0541,214.4882,70.9267,289.1889,-6.7882e-05,-1.292e-05,0.0,0 STARLINK-1062,1 44767U 19074BG  22249.30451412 -.00001292  00000-0 -67882-4 0  9999,2 44767  53.0541 214.4882 0001541  70.9267 289.1889 15.06397978155213,6925.355,95.592,548.2869999999998,546.153,0.0
44767,STARLINK-1062,PAYLOAD,2022-09-06 15:16:12,15.06382921,0.0001514,53.054,212.999,69.9754,290.1398,-0.00024645,-3.949e-05,0.0,0 STARLINK-1062,1 44767U 19074BG  22249.63625791 -.00003949  00000-0 -24645-3 0  9998,2 44767  53.0540 212.9990 0001514  69.9754 290.1398 15.06382921155268,6925.401,95.593,548.314,546.217,0.0
44767,STARLINK-1062,PAYLOAD,2022-09-07 07:11:36,15.06393597,0.0001567,53.0546,210.0212,66.4651,293.6502,-0.00011691,-2.022e-05,0.0,0 STARLINK-1062,1 44767U 19074BG  22250.29972966 -.00002022  00000-0 -11691-3 0  9999,2 44767  53.0546 210.0212 0001567  66.4651 293.6502 15.06393597155532,6925.368,95.593,548.318,546.148,0.0
44767,STARLINK-1062,PAYLOAD,2022-09-07 16:44:50,15.06397296,0.0001456,53.0546,208.2349,61.0749,299.0386,-5.0146e-05,-1.028e-05,0.0,0 STARLINK-1062,1 44767U 19074BG  22250.69780719 -.00001028  00000-0 -50146-4 0  9990,2 44767  53.0546 208.2349 0001456  61.0749 299.0386 15.06397296155426,6925.357,95.592,548.23,546.214,0.0
44767,STARLINK-1062,PAYLOAD,2022-09-08 07:04:41,15.0639751,0.0001486999999999,53.0544,205.5544,62.1201,297.9938,0.00015227,1.987e-05,0.0,0 STARLINK-1062,1 44767U 19074BG  22251.29492558  .00001987  00000-0  15227-3 0  9990,2 44767  53.0544 205.5544 0001487  62.1201 297.9938 15.06397510155519,6925.356,95.592,548.251,546.191,0.0
44767,STARLINK-1062,PAYLOAD,2022-09-08 19:49:01,15.06390409,0.0001759,53.0545,203.1714,60.0952,300.0211,0.00019314,2.596e-05,0.0,0 STARLINK-1062,1 44767U 19074BG  22251.82570759  .00002596  00000-0  19314-3 0  9997,2 44767  53.0545 203.1714 0001759  60.0952 300.0211 15.06390409155762,6925.378000000002,95.593,548.461,546.025,0.0
